[
    {
        "Altitude(m)": 624790.8337860575,
        "Argument of Periapsis(deg)": 0.0,
        "Eccentricity": 0.0,
        "Inclination(deg)": 60.0,
        "Latitude(deg)": -59.14723298943888,
        "Longitude(deg)": -113.96547022454794,
        "Mean Anomaly(deg)": 278.1818,
        "RAAN(deg)": 60.0,
        "Satellite Name": "Test1 281",
        "Satellite Number": 281,
        "Semi-Major Axis(m)": 6980739.136638005,
        "Time(s)": 0
    },
    {
        "Altitude(m)": 624737.4892533043,
        "Argument of Periapsis(deg)": 0.00010418945913296404,
        "Eccentricity": 0.0,
        "Inclination(deg)": 60.0,
        "Latitude(deg)": -58.99468900642989,
        "Longitude(deg)": -112.84596391168976,
        "Mean Anomaly(deg)": 278.8019061454619,
        "RAAN(deg)": 59.99957995086026,
        "Satellite Name": "Test1 281",
        "Satellite Number": 281,
        "Semi-Major Axis(m)": 6980739.136638005,
        "Time(s)": 10
    },
    {
        "Altitude(m)": 624680.3611191817,
        "Argument of Periapsis(deg)": 0.0002083789182659281,
        "Eccentricity": 0.0,
        "Inclination(deg)": 60.0,
        "Latitude(deg)": -58.831833375148946,
        "Longitude(deg)": -111.7370100086216,
        "Mean Anomaly(deg)": 279.42201229092365,
        "RAAN(deg)": 59.99915990172052,
        "Satellite Name": "Test1 281",
        "Satellite Number": 281,
        "Semi-Major Axis(m)": 6980739.136638005,
        "Time(s)": 20
    },
    {
        "Altitude(m)": 624619.471848895,
        "Argument of Periapsis(deg)": 0.00031256837739889213,
        "Eccentricity": 0.0,
        "Inclination(deg)": 60.0,
        "Latitude(deg)": -58.65882673282628,
        "Longitude(deg)": -110.63911659915318,
        "Mean Anomaly(deg)": 280.0421184363855,
        "RAAN(deg)": 59.998739852580776,
        "Satellite Name": "Test1 281",
        "Satellite Number": 281,
        "Semi-Major Axis(m)": 6980739.136638005,
        "Time(s)": 30
    },
    {
        "Altitude(m)": 624554.8453847307,
        "Argument of Periapsis(deg)": 0.0004167578365318562,
        "Eccentricity": 0.0,
        "Inclination(deg)": 60.0,
        "Latitude(deg)": -58.4758361013169,
        "Longitude(deg)": -109.55275166344826,
        "Mean Anomaly(deg)": 280.6622245818473,
        "RAAN(deg)": 59.998319803441035,
        "Satellite Name": "Test1 281",
        "Satellite Number": 281,
        "Semi-Major Axis(m)": 6980739.136638005,
        "Time(s)": 40
    },
    {
        "Altitude(m)": 624486.5071359585,
        "Argument of Periapsis(deg)": 0.0005209472956648203,
        "Eccentricity": 0.0,
        "Inclination(deg)": 60.0,
        "Latitude(deg)": -58.28303418450883,
        "Longitude(deg)": -108.47834384071994,
        "Mean Anomaly(deg)": 281.2823307273091,
        "RAAN(deg)": 59.99789975430128,
        "Satellite Name": "Test1 281",
        "Satellite Number": 281,
        "Semi-Major Axis(m)": 6980739.136638005,
        "Time(s)": 50
    },
    {
        "Altitude(m)": 624414.4839681084,
        "Argument of Periapsis(deg)": 0.0006251367547977843,
        "Eccentricity": 0.0,
        "Inclination(deg)": 60.0,
        "Latitude(deg)": -58.080598671693636,
        "Longitude(deg)": -107.41628196352104,
        "Mean Anomaly(deg)": 281.902436872771,
        "RAAN(deg)": 59.99747970516154,
        "Satellite Name": "Test1 281",
        "Satellite Number": 281,
        "Semi-Major Axis(m)": 6980739.136638005,
        "Time(s)": 60
    },
    {
        "Altitude(m)": 624338.8041916384,
        "Argument of Periapsis(deg)": 0.0007293262139307483,
        "Eccentricity": 0.0,
        "Inclination(deg)": 60.0,
        "Latitude(deg)": -57.86871155216753,
        "Longitude(deg)": -106.3669148569774,
        "Mean Anomaly(deg)": 282.5225430182328,
        "RAAN(deg)": 59.9970596560218,
        "Satellite Name": "Test1 281",
        "Satellite Number": 281,
        "Semi-Major Axis(m)": 6980739.136638005,
        "Time(s)": 70
    },
    {
        "Altitude(m)": 624259.4975499845,
        "Argument of Periapsis(deg)": 0.0008335156730637124,
        "Eccentricity": 0.0,
        "Inclination(deg)": 60.0,
        "Latitude(deg)": -57.647558445808876,
        "Longitude(deg)": -105.33055289418222,
        "Mean Anomaly(deg)": 283.1426491636946,
        "RAAN(deg)": 59.996639606882056,
        "Satellite Name": "Test1 281",
        "Satellite Number": 281,
        "Semi-Major Axis(m)": 6980739.136638005,
        "Time(s)": 80
    },
    {
        "Altitude(m)": 624176.5952069949,
        "Argument of Periapsis(deg)": 0.0009377051321966765,
        "Eccentricity": 0.0,
        "Inclination(deg)": 60.0,
        "Latitude(deg)": -57.41732795383046,
        "Longitude(deg)": -104.30746825880009,
        "Mean Anomaly(deg)": 283.76275530915655,
        "RAAN(deg)": 59.996219557742315,
        "Satellite Name": "Test1 281",
        "Satellite Number": 281,
        "Semi-Major Axis(m)": 6980739.136638005,
        "Time(s)": 90
    },
    {
        "Altitude(m)": 624090.1297337634,
        "Argument of Periapsis(deg)": 0.0010418945913296407,
        "Eccentricity": 0.0,
        "Inclination(deg)": 60.0,
        "Latitude(deg)": -57.17821103333568,
        "Longitude(deg)": -103.29789540359377,
        "Mean Anomaly(deg)": 284.3828614546183,
        "RAAN(deg)": 59.995799508602566,
        "Satellite Name": "Test1 281",
        "Satellite Number": 281,
        "Semi-Major Axis(m)": 6980739.136638005,
        "Time(s)": 100
    },
    {
        "Altitude(m)": 624000.1350948723,
        "Argument of Periapsis(deg)": 0.0011460840504626045,
        "Eccentricity": 0.0,
        "Inclination(deg)": 60.0,
        "Latitude(deg)": -56.93040039873841,
        "Longitude(deg)": -102.3020331931401,
        "Mean Anomaly(deg)": 285.0029676000801,
        "RAAN(deg)": 59.995379459462825,
        "Satellite Name": "Test1 281",
        "Satellite Number": 281,
        "Semi-Major Axis(m)": 6980739.136638005,
        "Time(s)": 110
    },
    {
        "Altitude(m)": 623906.6466340086,
        "Argument of Periapsis(deg)": 0.0012502735095955685,
        "Eccentricity": 0.0,
        "Inclination(deg)": 60.0,
        "Latitude(deg)": -56.674089952550595,
        "Longitude(deg)": -101.32004568040003,
        "Mean Anomaly(deg)": 285.623073745542,
        "RAAN(deg)": 59.99495941032308,
        "Satellite Name": "Test1 281",
        "Satellite Number": 281,
        "Semi-Major Axis(m)": 6980739.136638005,
        "Time(s)": 120
    },
    {
        "Altitude(m)": 623809.7010590258,
        "Argument of Periapsis(deg)": 0.0013544629687285324,
        "Eccentricity": 0.0,
        "Inclination(deg)": 60.0,
        "Latitude(deg)": -56.40947424749875,
        "Longitude(deg)": -100.35206300590107,
        "Mean Anomaly(deg)": 286.24317989100376,
        "RAAN(deg)": 59.994539361183335,
        "Satellite Name": "Test1 281",
        "Satellite Number": 281,
        "Semi-Major Axis(m)": 6980739.136638005,
        "Time(s)": 130
    },
    {
        "Altitude(m)": 623709.3364263967,
        "Argument of Periapsis(deg)": 0.0014586524278614966,
        "Eccentricity": 0.0,
        "Inclination(deg)": 60.0,
        "Latitude(deg)": -56.13674798141668,
        "Longitude(deg)": -99.39818390909016,
        "Mean Anomaly(deg)": 286.86328603646564,
        "RAAN(deg)": 59.994119312043594,
        "Satellite Name": "Test1 281",
        "Satellite Number": 281,
        "Semi-Major Axis(m)": 6980739.136638005,
        "Time(s)": 140
    },
    {
        "Altitude(m)": 623605.5921250919,
        "Argument of Periapsis(deg)": 0.0015628418869944607,
        "Eccentricity": 0.0,
        "Inclination(deg)": 60.0,
        "Latitude(deg)": -55.856105525885525,
        "Longitude(deg)": -98.45847680390075,
        "Mean Anomaly(deg)": 287.48339218192746,
        "RAAN(deg)": 59.99369926290385,
        "Satellite Name": "Test1 281",
        "Satellite Number": 281,
        "Semi-Major Axis(m)": 6980739.136638005,
        "Time(s)": 150
    },
    {
        "Altitude(m)": 623498.5088598956,
        "Argument of Periapsis(deg)": 0.0016670313461274247,
        "Eccentricity": 0.0,
        "Inclination(deg)": 60.0,
        "Latitude(deg)": -55.56774048914954,
        "Longitude(deg)": -97.53298091055359,
        "Mean Anomaly(deg)": 288.1034983273893,
        "RAAN(deg)": 59.99327921376411,
        "Satellite Name": "Test1 281",
        "Satellite Number": 281,
        "Semi-Major Axis(m)": 6980739.136638005,
        "Time(s)": 160
    },
    {
        "Altitude(m)": 623388.1286341347,
        "Argument of Periapsis(deg)": 0.0017712208052603888,
        "Eccentricity": 0.0,
        "Inclination(deg)": 60.0,
        "Latitude(deg)": -55.27184531343563,
        "Longitude(deg)": -96.62170893712845,
        "Mean Anomaly(deg)": 288.7236044728511,
        "RAAN(deg)": 59.99285916462437,
        "Satellite Name": "Test1 281",
        "Satellite Number": 281,
        "Semi-Major Axis(m)": 6980739.136638005,
        "Time(s)": 170
    },
    {
        "Altitude(m)": 623274.4947318597,
        "Argument of Periapsis(deg)": 0.001875410264393353,
        "Eccentricity": 0.0,
        "Inclination(deg)": 60.0,
        "Latitude(deg)": -54.9686109064524,
        "Longitude(deg)": -95.72464826746183,
        "Mean Anomaly(deg)": 289.3437106183129,
        "RAAN(deg)": 59.99243911548463,
        "Satellite Name": "Test1 281",
        "Satellite Number": 281,
        "Semi-Major Axis(m)": 6980739.136638005,
        "Time(s)": 180
    },
    {
        "Altitude(m)": 623157.6516994741,
        "Argument of Periapsis(deg)": 0.0019795997235263173,
        "Eccentricity": 0.0,
        "Inclination(deg)": 60.0,
        "Latitude(deg)": -54.65822630653208,
        "Longitude(deg)": -94.84176215227498,
        "Mean Anomaly(deg)": 289.96381676377473,
        "RAAN(deg)": 59.99201906634489,
        "Satellite Name": "Test1 281",
        "Satellite Number": 281,
        "Semi-Major Axis(m)": 6980739.136638005,
        "Time(s)": 190
    }
]